{
  "type": "FeatureCollection",
  "features": [
    {
      "type": "Feature",
      "properties": {
        "BlockCode": "120101",
        "DistrictName": "Khordha",
        "TehsilName": "Bhubaneswar Sadar",
        "Area_Ha": 15420
      },
      "geometry": {
        "type": "Polygon",
        "coordinates": [[
          [85.8200, 20.2800],
          [85.9200, 20.2800],
          [85.9200, 20.3500],
          [85.8200, 20.3500],
          [85.8200, 20.2800]
        ]]
      }
    },
    {
      "type": "Feature",
      "properties": {
        "BlockCode": "120102",
        "DistrictName": "Khordha",
        "TehsilName": "Jatni",
        "Area_Ha": 12850
      },
      "geometry": {
        "type": "Polygon",
        "coordinates": [[
          [85.7000, 20.1500],
          [85.8000, 20.1500],
          [85.8000, 20.2300],
          [85.7000, 20.2300],
          [85.7000, 20.1500]
        ]]
      }
    },
    {
      "type": "Feature",
      "properties": {
        "BlockCode": "120201",
        "DistrictName": "Puri",
        "TehsilName": "Puri Sadar",
        "Area_Ha": 18200
      },
      "geometry": {
        "type": "Polygon",
        "coordinates": [[
          [85.8000, 19.7800],
          [85.9000, 19.7800],
          [85.9000, 19.8500],
          [85.8000, 19.8500],
          [85.8000, 19.7800]
        ]]
      }
    },
    {
      "type": "Feature",
      "properties": {
        "BlockCode": "120301",
        "DistrictName": "Cuttack",
        "TehsilName": "Cuttack Sadar",
        "Area_Ha": 16500
      },
      "geometry": {
        "type": "Polygon",
        "coordinates": [[
          [85.8500, 20.4500],
          [85.9500, 20.4500],
          [85.9500, 20.5200],
          [85.8500, 20.5200],
          [85.8500, 20.4500]
        ]]
      }
    },
    {
      "type": "Feature",
      "properties": {
        "BlockCode": "120302",
        "DistrictName": "Cuttack",
        "TehsilName": "Banki",
        "Area_Ha": 14200
      },
      "geometry": {
        "type": "Polygon",
        "coordinates": [[
          [85.5000, 20.3800],
          [85.6000, 20.3800],
          [85.6000, 20.4500],
          [85.5000, 20.4500],
          [85.5000, 20.3800]
        ]]
      }
    },
    {
      "type": "Feature",
      "properties": {
        "BlockCode": "120401",
        "DistrictName": "Jagatsinghpur",
        "TehsilName": "Jagatsinghpur",
        "Area_Ha": 19800
      },
      "geometry": {
        "type": "Polygon",
        "coordinates": [[
          [86.6000, 20.2500],
          [86.7000, 20.2500],
          [86.7000, 20.3200],
          [86.6000, 20.3200],
          [86.6000, 20.2500]
        ]]
      }
    },
    {
      "type": "Feature",
      "properties": {
        "BlockCode": "120501",
        "DistrictName": "Kendrapara",
        "TehsilName": "Kendrapara Sadar",
        "Area_Ha": 17600
      },
      "geometry": {
        "type": "Polygon",
        "coordinates": [[
          [86.4000, 20.4800],
          [86.5000, 20.4800],
          [86.5000, 20.5500],
          [86.4000, 20.5500],
          [86.4000, 20.4800]
        ]]
      }
    },
    {
      "type": "Feature",
      "properties": {
        "BlockCode": "120601",
        "DistrictName": "Balasore",
        "TehsilName": "Balasore Sadar",
        "Area_Ha": 15900
      },
      "geometry": {
        "type": "Polygon",
        "coordinates": [[
          [86.9000, 21.4800],
          [87.0000, 21.4800],
          [87.0000, 21.5500],
          [86.9000, 21.5500],
          [86.9000, 21.4800]
        ]]
      }
    },
    {
      "type": "Feature",
      "properties": {
        "BlockCode": "120701",
        "DistrictName": "Mayurbhanj",
        "TehsilName": "Baripada",
        "Area_Ha": 21200
      },
      "geometry": {
        "type": "Polygon",
        "coordinates": [[
          [86.7000, 21.9200],
          [86.8000, 21.9200],
          [86.8000, 21.9900],
          [86.7000, 21.9900],
          [86.7000, 21.9200]
        ]]
      }
    },
    {
      "type": "Feature",
      "properties": {
        "BlockCode": "120801",
        "DistrictName": "Sambalpur",
        "TehsilName": "Sambalpur",
        "Area_Ha": 13800
      },
      "geometry": {
        "type": "Polygon",
        "coordinates": [[
          [83.9500, 21.4500],
          [84.0500, 21.4500],
          [84.0500, 21.5200],
          [83.9500, 21.5200],
          [83.9500, 21.4500]
        ]]
      }
    }
  ]
}
